{"fetched_at":"2026-07-18T06:28:10.739Z","source":"https://celestrak.org/NORAD/elements/gp.php?NAME=HULIANWANG&FORMAT=JSON","constellation":"guowang","records":[{"OBJECT_NAME":"HULIANWANG DIGUI-156","OBJECT_ID":"2026-047B","EPOCH":"2026-07-17T16:02:36.679776","CLASSIFICATION_TYPE":"U","MEAN_MOTION":13.29326266,"ECCENTRICITY":0.00008783,"INCLINATION":50.0047,"RA_OF_ASC_NODE":306.9914,"ARG_OF_PERICENTER":211.1912,"MEAN_ANOMALY":148.8908,"EPHEMERIS_TYPE":0,"NORAD_CAT_ID":68130,"ELEMENT_SET_NO":999,"REV_AT_EPOCH":1711,"BSTAR":0.000079797612,"MEAN_MOTION_DOT":-8.7e-7,"MEAN_MOTION_DDOT":0},{"OBJECT_NAME":"HULIANWANG DIGUI-157","OBJECT_ID":"2026-047C","EPOCH":"2026-07-17T17:38:51.968544","CLASSIFICATION_TYPE":"U","MEAN_MOTION":13.29325624,"ECCENTRICITY":0.00008745,"INCLINATION":50.0018,"RA_OF_ASC_NODE":306.6485,"ARG_OF_PERICENTER":207.8993,"MEAN_ANOMALY":152.1832,"EPHEMERIS_TYPE":0,"NORAD_CAT_ID":68131,"ELEMENT_SET_NO":999,"REV_AT_EPOCH":1713,"BSTAR":0.000082880853,"MEAN_MOTION_DOT":-8.6e-7,"MEAN_MOTION_DDOT":0},{"OBJECT_NAME":"HULIANWANG DIGUI-158","OBJECT_ID":"2026-047D","EPOCH":"2026-07-17T17:26:47.790528","CLASSIFICATION_TYPE":"U","MEAN_MOTION":13.29324415,"ECCENTRICITY":0.00009759,"INCLINATION":50.0062,"RA_OF_ASC_NODE":306.6539,"ARG_OF_PERICENTER":206.8593,"MEAN_ANOMALY":153.2229,"EPHEMERIS_TYPE":0,"NORAD_CAT_ID":68132,"ELEMENT_SET_NO":999,"REV_AT_EPOCH":1712,"BSTAR":0.000087163299,"MEAN_MOTION_DOT":-8.4e-7,"MEAN_MOTION_DDOT":0},{"OBJECT_NAME":"HULIANWANG DIGUI-159","OBJECT_ID":"2026-047E","EPOCH":"2026-07-17T17:14:47.337216","CLASSIFICATION_TYPE":"U","MEAN_MOTION":13.29326214,"ECCENTRICITY":0.00010675,"INCLINATION":50.0022,"RA_OF_ASC_NODE":306.578,"ARG_OF_PERICENTER":204.2474,"MEAN_ANOMALY":155.8348,"EPHEMERIS_TYPE":0,"NORAD_CAT_ID":68133,"ELEMENT_SET_NO":999,"REV_AT_EPOCH":1713,"BSTAR":0.000080525339,"MEAN_MOTION_DOT":-8.7e-7,"MEAN_MOTION_DDOT":0},{"OBJECT_NAME":"HULIANWANG DIGUI-160","OBJECT_ID":"2026-047F","EPOCH":"2026-07-17T13:14:05.831232","CLASSIFICATION_TYPE":"U","MEAN_MOTION":13.29325944,"ECCENTRICITY":0.0001119,"INCLINATION":50.0091,"RA_OF_ASC_NODE":307.0916,"ARG_OF_PERICENTER":191.4431,"MEAN_ANOMALY":168.6416,"EPHEMERIS_TYPE":0,"NORAD_CAT_ID":68134,"ELEMENT_SET_NO":999,"REV_AT_EPOCH":1710,"BSTAR":0.000071904,"MEAN_MOTION_DOT":-9.1e-7,"MEAN_MOTION_DDOT":0},{"OBJECT_NAME":"HULIANWANG DIGUI-161","OBJECT_ID":"2026-047G","EPOCH":"2026-07-17T08:01:21.077472","CLASSIFICATION_TYPE":"U","MEAN_MOTION":13.29324924,"ECCENTRICITY":0.00009895,"INCLINATION":50.0113,"RA_OF_ASC_NODE":307.9635,"ARG_OF_PERICENTER":203.2513,"MEAN_ANOMALY":156.8315,"EPHEMERIS_TYPE":0,"NORAD_CAT_ID":68135,"ELEMENT_SET_NO":999,"REV_AT_EPOCH":1708,"BSTAR":0.000072572102,"MEAN_MOTION_DOT":-9e-7,"MEAN_MOTION_DDOT":0},{"OBJECT_NAME":"HULIANWANG DIGUI-162","OBJECT_ID":"2026-047H","EPOCH":"2026-07-17T07:37:37.806816","CLASSIFICATION_TYPE":"U","MEAN_MOTION":13.29324291,"ECCENTRICITY":0.0000922,"INCLINATION":50.008,"RA_OF_ASC_NODE":307.8483,"ARG_OF_PERICENTER":210.3981,"MEAN_ANOMALY":149.6837,"EPHEMERIS_TYPE":0,"NORAD_CAT_ID":68136,"ELEMENT_SET_NO":999,"REV_AT_EPOCH":1707,"BSTAR":0.000066853,"MEAN_MOTION_DOT":-9.3e-7,"MEAN_MOTION_DDOT":0},{"OBJECT_NAME":"HULIANWANG DIGUI-163","OBJECT_ID":"2026-047J","EPOCH":"2026-07-17T18:14:51.409536","CLASSIFICATION_TYPE":"U","MEAN_MOTION":13.29325773,"ECCENTRICITY":0.00008647,"INCLINATION":50.0079,"RA_OF_ASC_NODE":306.1892,"ARG_OF_PERICENTER":209.8028,"MEAN_ANOMALY":150.2795,"EPHEMERIS_TYPE":0,"NORAD_CAT_ID":68137,"ELEMENT_SET_NO":999,"REV_AT_EPOCH":1714,"BSTAR":0.000072907097,"MEAN_MOTION_DOT":-9e-7,"MEAN_MOTION_DDOT":0},{"OBJECT_NAME":"HULIANWANG DIGUI-164","OBJECT_ID":"2026-076A","EPOCH":"2026-07-17T22:48:30.693600","CLASSIFICATION_TYPE":"U","MEAN_MOTION":13.24410641,"ECCENTRICITY":0.00019869,"INCLINATION":86.4946,"RA_OF_ASC_NODE":33.4872,"ARG_OF_PERICENTER":78.5785,"MEAN_ANOMALY":281.5572,"EPHEMERIS_TYPE":0,"NORAD_CAT_ID":68656,"ELEMENT_SET_NO":999,"REV_AT_EPOCH":1344,"BSTAR":0.000025332185,"MEAN_MOTION_DOT":2.6e-7,"MEAN_MOTION_DDOT":0},{"OBJECT_NAME":"HULIANWANG DIGUI-165","OBJECT_ID":"2026-076B","EPOCH":"2026-07-17T22:37:38.588736","CLASSIFICATION_TYPE":"U","MEAN_MOTION":13.24413295,"ECCENTRICITY":0.00021343,"INCLINATION":86.4965,"RA_OF_ASC_NODE":33.5071,"ARG_OF_PERICENTER":83.7414,"MEAN_ANOMALY":276.3963,"EPHEMERIS_TYPE":0,"NORAD_CAT_ID":68657,"ELEMENT_SET_NO":999,"REV_AT_EPOCH":1344,"BSTAR":-0.000049901952,"MEAN_MOTION_DOT":-7e-8,"MEAN_MOTION_DDOT":0},{"OBJECT_NAME":"HULIANWANG DIGUI-166","OBJECT_ID":"2026-076C","EPOCH":"2026-07-17T22:26:51.411264","CLASSIFICATION_TYPE":"U","MEAN_MOTION":13.2441137,"ECCENTRICITY":0.00021059,"INCLINATION":86.4906,"RA_OF_ASC_NODE":33.4395,"ARG_OF_PERICENTER":83.8268,"MEAN_ANOMALY":276.3106,"EPHEMERIS_TYPE":0,"NORAD_CAT_ID":68658,"ELEMENT_SET_NO":999,"REV_AT_EPOCH":1344,"BSTAR":-0.000041039399,"MEAN_MOTION_DOT":-3e-8,"MEAN_MOTION_DDOT":0},{"OBJECT_NAME":"HULIANWANG DIGUI-167","OBJECT_ID":"2026-076D","EPOCH":"2026-07-17T22:15:52.662240","CLASSIFICATION_TYPE":"U","MEAN_MOTION":13.24413456,"ECCENTRICITY":0.00020976,"INCLINATION":86.496,"RA_OF_ASC_NODE":33.4967,"ARG_OF_PERICENTER":83.8906,"MEAN_ANOMALY":276.2467,"EPHEMERIS_TYPE":0,"NORAD_CAT_ID":68659,"ELEMENT_SET_NO":999,"REV_AT_EPOCH":1344,"BSTAR":-0.000047403271,"MEAN_MOTION_DOT":-6e-8,"MEAN_MOTION_DDOT":0},{"OBJECT_NAME":"HULIANWANG DIGUI-168","OBJECT_ID":"2026-076E","EPOCH":"2026-07-17T22:05:00.534912","CLASSIFICATION_TYPE":"U","MEAN_MOTION":13.24411615,"ECCENTRICITY":0.00021326,"INCLINATION":86.4942,"RA_OF_ASC_NODE":33.472,"ARG_OF_PERICENTER":83.8798,"MEAN_ANOMALY":276.2579,"EPHEMERIS_TYPE":0,"NORAD_CAT_ID":68660,"ELEMENT_SET_NO":999,"REV_AT_EPOCH":1343,"BSTAR":-0.000055434765,"MEAN_MOTION_DOT":-9e-8,"MEAN_MOTION_DDOT":0}]}
