HULIANWANG DIGUI-156    
1 68130U 26047B   26198.66848009 -.00000087  00000+0  79798-4 0  9993
2 68130  50.0047 306.9914 0000878 211.1912 148.8908 13.29326266 17116
HULIANWANG DIGUI-157    
1 68131U 26047C   26198.73532371 -.00000086  00000+0  82881-4 0  9990
2 68131  50.0018 306.6485 0000874 207.8993 152.1832 13.29325624 17135
HULIANWANG DIGUI-158    
1 68132U 26047D   26198.72694202 -.00000084  00000+0  87163-4 0  9998
2 68132  50.0062 306.6539 0000975 206.8593 153.2229 13.29324415 17120
HULIANWANG DIGUI-159    
1 68133U 26047E   26198.71860344 -.00000087  00000+0  80525-4 0  9998
2 68133  50.0022 306.5780 0001067 204.2474 155.8348 13.29326214 17137
HULIANWANG DIGUI-160    
1 68134U 26047F   26198.55145638 -.00000091  00000+0  71904-4 0  9999
2 68134  50.0091 307.0916 0001119 191.4431 168.6416 13.29325944 17103
HULIANWANG DIGUI-161    
1 68135U 26047G   26198.33427173 -.00000090  00000+0  72572-4 0  9994
2 68135  50.0113 307.9635 0000989 203.2513 156.8315 13.29324924 17084
HULIANWANG DIGUI-162    
1 68136U 26047H   26198.31779869 -.00000093  00000+0  66853-4 0  9993
2 68136  50.0080 307.8483 0000922 210.3981 149.6837 13.29324291 17078
HULIANWANG DIGUI-163    
1 68137U 26047J   26198.76031724 -.00000090  00000+0  72907-4 0  9998
2 68137  50.0079 306.1892 0000864 209.8028 150.2795 13.29325773 17148
HULIANWANG DIGUI-164    
1 68656U 26076A   26198.95035525  .00000026  00000+0  25332-4 0  9998
2 68656  86.4946  33.4872 0001986  78.5785 281.5572 13.24410641 13449
HULIANWANG DIGUI-165    
1 68657U 26076B   26198.94280774 -.00000007  00000+0 -49902-4 0  9996
2 68657  86.4965  33.5071 0002134  83.7414 276.3963 13.24413295 13440
HULIANWANG DIGUI-166    
1 68658U 26076C   26198.93531726 -.00000003  00000+0 -41039-4 0  9991
2 68658  86.4906  33.4395 0002105  83.8268 276.3106 13.24411370 13441
HULIANWANG DIGUI-167    
1 68659U 26076D   26198.92769285 -.00000006  00000+0 -47403-4 0  9998
2 68659  86.4960  33.4967 0002097  83.8906 276.2467 13.24413456 13442
HULIANWANG DIGUI-168    
1 68660U 26076E   26198.92014508 -.00000009  00000+0 -55435-4 0  9998
2 68660  86.4942  33.4720 0002132  83.8798 276.2579 13.24411615 13438
